{"type":"FeatureCollection","features":[{"type":"Feature","id":1,"geometry":{"type":"Point","coordinates":[-73.027814296999964,41.212939281000047]},"properties":{"OBJECTID":1,"address_source":"395 Welchs Point Rd, Milford, CT 06460","address_geocoded":"395 Welchs Point Rd, Milford, Connecticut, 06460","lon":-73.027814297483999,"lat":41.212939280649998,"School":"Calf Pen Meadow Elementary School","Level":"Elementary"}},{"type":"Feature","id":2,"geometry":{"type":"Point","coordinates":[-73.088987857999939,41.21646194300007]},"properties":{"OBJECTID":2,"address_source":"404 West Ave, Milford, CT 06461","address_geocoded":"404 West Ave, Milford, Connecticut, 06461","lon":-73.088987857609993,"lat":41.216461943097997,"School":"J. F. Kennedy Elementary School","Level":"Elementary"}},{"type":"Feature","id":3,"geometry":{"type":"Point","coordinates":[-73.062830535999979,41.239133147000075]},"properties":{"OBJECTID":3,"address_source":"466 West River St, Milford, CT 06461","address_geocoded":"466 W River St, Milford, Connecticut, 06461","lon":-73.062830536190006,"lat":41.239133147168999,"School":"Mathewson Elementary School","Level":"Elementary"}},{"type":"Feature","id":4,"geometry":{"type":"Point","coordinates":[-73.07385433099995,41.211506436000036]},"properties":{"OBJECTID":4,"address_source":"80 Seemans Ln, Milford, CT 06460","address_geocoded":"80 Seemans Ln, Milford, Connecticut, 06460","lon":-73.073854331427,"lat":41.211506436211998,"School":"Meadowside Elementary School","Level":"Elementary"}},{"type":"Feature","id":5,"geometry":{"type":"Point","coordinates":[-73.050598908999973,41.238278235000053]},"properties":{"OBJECTID":5,"address_source":"260 Orange Ave, Milford, CT 06461","address_geocoded":"260 Orange Ave, Milford, Connecticut, 06461","lon":-73.050598908704998,"lat":41.238278234954002,"School":"Orange Avenue Elementary School","Level":"Elementary"}},{"type":"Feature","id":6,"geometry":{"type":"Point","coordinates":[-73.023410947999935,41.220346578000033]},"properties":{"OBJECTID":6,"address_source":"185 Marino Dr, Milford, CT 06460","address_geocoded":"185 Marino Dr, Milford, Connecticut, 06460","lon":-73.023410948470001,"lat":41.220346578033997,"School":"Orchard Hills Elementary School","Level":"Elementary"}},{"type":"Feature","id":7,"geometry":{"type":"Point","coordinates":[-73.078845838999939,41.204065485000058]},"properties":{"OBJECTID":7,"address_source":"27 Art St, Milford, CT 06460","address_geocoded":"27 Art St, Milford, Connecticut, 06460","lon":-73.078845838587,"lat":41.204065485487,"School":"Pumpkin Delight Elementary School","Level":"Elementary"}},{"type":"Feature","id":8,"geometry":{"type":"Point","coordinates":[-72.995502144999989,41.237867941000047]},"properties":{"OBJECTID":8,"address_source":"575 Merwin Ave, Milford, CT 06460","address_geocoded":"575 Merwin Ave, Milford, Connecticut, 06460","lon":-72.995502144561996,"lat":41.237867940793997,"School":"Live Oaks Elementary School","Level":"Elementary"}},{"type":"Feature","id":9,"geometry":{"type":"Point","coordinates":[-73.05998404199994,41.223940109000068]},"properties":{"OBJECTID":9,"address_source":"175 High St, Milford, CT 06460","address_geocoded":"175 High St, Milford, Connecticut, 06460","lon":-73.059984041871999,"lat":41.223940109472998,"School":"Harborside Middle School","Level":"Middle"}},{"type":"Feature","id":10,"geometry":{"type":"Point","coordinates":[-73.097373029999972,41.191985403000047]},"properties":{"OBJECTID":10,"address_source":"70 Kay Ave, Milford, CT 06460","address_geocoded":"70 Kay Ave, Milford, Connecticut, 06460","lon":-73.097373029728004,"lat":41.191985402811,"School":"West Shore Middle School","Level":"Middle"}},{"type":"Feature","id":11,"geometry":{"type":"Point","coordinates":[-73.00137869699995,41.227637409000067]},"properties":{"OBJECTID":11,"address_source":"240 Chapel St, Milford, CT 06460","address_geocoded":"240 Chapel St, Milford, Connecticut, 06460","lon":-73.001378696878007,"lat":41.227637408873001,"School":"East Shore Middle School","Level":"Middle"}},{"type":"Feature","id":12,"geometry":{"type":"Point","coordinates":[-73.089105371999949,41.204169840000077]},"properties":{"OBJECTID":12,"address_source":"20 Lansdale Ave, Milford, CT 06460","address_geocoded":"20 Lansdale Ave, Milford, Connecticut, 06460","lon":-73.089105371892998,"lat":41.204169840181002,"School":"Jonathan Law High School","Level":"High"}},{"type":"Feature","id":13,"geometry":{"type":"Point","coordinates":[-73.012745898999981,41.21948181700003]},"properties":{"OBJECTID":13,"address_source":"80 Foran Rd, Milford, CT 06460","address_geocoded":"80 Foran Rd, Milford, Connecticut, 06460","lon":-73.012745898689005,"lat":41.219481817083,"School":"Joseph A. Foran High School","Level":"High"}},{"type":"Feature","id":14,"geometry":{"type":"Point","coordinates":[-73.046346936999953,41.249263012000029]},"properties":{"OBJECTID":14,"address_source":"600 Orange Ave, Milford, CT 06461","address_geocoded":"600 Orange Ave, Milford, Connecticut, 06461","lon":-73.046346936861994,"lat":41.249263012432003,"School":"Platt Technical High School","Level":"High/Technical"}}]}