{
  "type": "FeatureCollection",
  "features": [
    {
      "type": "Feature",
      "properties": {
        "Name": "9001 : 0 - 2640",
        "ToBreak": 2640
      },
      "geometry": {
        "type": "Polygon",
        "coordinates": [
          [
            [-73.078, 41.229],
            [-73.058, 41.229],
            [-73.058, 41.246],
            [-73.078, 41.246],
            [-73.078, 41.229]
          ]
        ]
      }
    },
    {
      "type": "Feature",
      "properties": {
        "Name": "9001 : 0 - 5280",
        "ToBreak": 5280
      },
      "geometry": {
        "type": "Polygon",
        "coordinates": [
          [
            [-73.082, 41.225],
            [-73.054, 41.225],
            [-73.054, 41.25],
            [-73.082, 41.25],
            [-73.082, 41.225]
          ]
        ]
      }
    },
    {
      "type": "Feature",
      "properties": {
        "Name": "9002 : 0 - 2640",
        "ToBreak": 2640
      },
      "geometry": {
        "type": "Polygon",
        "coordinates": [
          [
            [-73.058, 41.212],
            [-73.038, 41.212],
            [-73.038, 41.228],
            [-73.058, 41.228],
            [-73.058, 41.212]
          ]
        ]
      }
    }
  ]
}
