{
  "type": "FeatureCollection",
  "features": [
    {
      "type": "Feature",
      "properties": {
        "MSID": 9001,
        "count": 120,
        "HEX_ID": "demo-hex-1"
      },
      "geometry": {
        "type": "Polygon",
        "coordinates": [
          [
            [-73.075, 41.232],
            [-73.068, 41.232],
            [-73.068, 41.238],
            [-73.075, 41.238],
            [-73.075, 41.232]
          ]
        ]
      }
    },
    {
      "type": "Feature",
      "properties": {
        "MSID": 9001,
        "count": 85,
        "HEX_ID": "demo-hex-2"
      },
      "geometry": {
        "type": "Polygon",
        "coordinates": [
          [
            [-73.068, 41.228],
            [-73.061, 41.228],
            [-73.061, 41.234],
            [-73.068, 41.234],
            [-73.068, 41.228]
          ]
        ]
      }
    },
    {
      "type": "Feature",
      "properties": {
        "MSID": 9002,
        "count": 64,
        "HEX_ID": "demo-hex-3"
      },
      "geometry": {
        "type": "Polygon",
        "coordinates": [
          [
            [-73.055, 41.215],
            [-73.048, 41.215],
            [-73.048, 41.221],
            [-73.055, 41.221],
            [-73.055, 41.215]
          ]
        ]
      }
    }
  ]
}
